[{"OBJECT_NAME":"ONEWEB-0205","OBJECT_ID":"2021-031S","EPOCH":"2026-05-13T04:47:32.395200","MEAN_MOTION":13.14504471,"ECCENTRICITY":0.0001709,"INCLINATION":87.8935,"RA_OF_ASC_NODE":296.6745,"ARG_OF_PERICENTER":101.4295,"MEAN_ANOMALY":258.7027,"EPHEMERIS_TYPE":0,"CLASSIFICATION_TYPE":"U","NORAD_CAT_ID":48226,"ELEMENT_SET_NO":999,"REV_AT_EPOCH":24367,"BSTAR":0.00031796000000000005,"MEAN_MOTION_DOT":1.31e-06,"MEAN_MOTION_DDOT":0.0},{"OBJECT_NAME":"ONEWEB-0206","OBJECT_ID":"2021-031T","EPOCH":"2026-05-13T00:29:30.776640","MEAN_MOTION":13.1450195,"ECCENTRICITY":0.0001947,"INCLINATION":87.8933,"RA_OF_ASC_NODE":296.7127,"ARG_OF_PERICENTER":92.3749,"MEAN_ANOMALY":267.7604,"EPHEMERIS_TYPE":0,"CLASSIFICATION_TYPE":"U","NORAD_CAT_ID":48227,"ELEMENT_SET_NO":999,"REV_AT_EPOCH":24360,"BSTAR":-0.00043746000000000003,"MEAN_MOTION_DOT":-1.49e-06,"MEAN_MOTION_DDOT":0.0},{"OBJECT_NAME":"ONEWEB-0182","OBJECT_ID":"2021-031U","EPOCH":"2026-05-13T04:01:52.493952","MEAN_MOTION":13.1450408,"ECCENTRICITY":0.0001965,"INCLINATION":87.8932,"RA_OF_ASC_NODE":296.6922,"ARG_OF_PERICENTER":100.3012,"MEAN_ANOMALY":259.834,"EPHEMERIS_TYPE":0,"CLASSIFICATION_TYPE":"U","NORAD_CAT_ID":48228,"ELEMENT_SET_NO":999,"REV_AT_EPOCH":24383,"BSTAR":-0.00055261,"MEAN_MOTION_DOT":-1.92e-06,"MEAN_MOTION_DDOT":0.0},{"OBJECT_NAME":"ONEWEB-0186","OBJECT_ID":"2021-031V","EPOCH":"2026-05-13T04:17:51.451872","MEAN_MOTION":13.14504086,"ECCENTRICITY":0.0001735,"INCLINATION":87.8937,"RA_OF_ASC_NODE":296.6783,"ARG_OF_PERICENTER":98.1742,"MEAN_ANOMALY":261.9585,"EPHEMERIS_TYPE":0,"CLASSIFICATION_TYPE":"U","NORAD_CAT_ID":48229,"ELEMENT_SET_NO":999,"REV_AT_EPOCH":24378,"BSTAR":-0.00061006,"MEAN_MOTION_DOT":-2.13e-06,"MEAN_MOTION_DDOT":0.0},{"OBJECT_NAME":"ONEWEB-0181","OBJECT_ID":"2021-031W","EPOCH":"2026-05-13T03:45:54.735264","MEAN_MOTION":13.14503585,"ECCENTRICITY":0.0001566,"INCLINATION":87.8923,"RA_OF_ASC_NODE":296.7176,"ARG_OF_PERICENTER":96.86,"MEAN_ANOMALY":263.2708,"EPHEMERIS_TYPE":0,"CLASSIFICATION_TYPE":"U","NORAD_CAT_ID":48230,"ELEMENT_SET_NO":999,"REV_AT_EPOCH":24363,"BSTAR":-0.00020435,"MEAN_MOTION_DOT":-6.3e-07,"MEAN_MOTION_DDOT":0.0},{"OBJECT_NAME":"ONEWEB-0188","OBJECT_ID":"2021-031X","EPOCH":"2026-05-13T04:40:43.844160","MEAN_MOTION":13.14503292,"ECCENTRICITY":0.0001773,"INCLINATION":87.8921,"RA_OF_ASC_NODE":296.7085,"ARG_OF_PERICENTER":97.3811,"MEAN_ANOMALY":262.7521,"EPHEMERIS_TYPE":0,"CLASSIFICATION_TYPE":"U","NORAD_CAT_ID":48231,"ELEMENT_SET_NO":999,"REV_AT_EPOCH":24354,"BSTAR":0.00018026,"MEAN_MOTION_DOT":8e-07,"MEAN_MOTION_DDOT":0.0},{"OBJECT_NAME":"ONEWEB-0220","OBJECT_ID":"2021-031Y","EPOCH":"2026-05-13T03:48:09.883872","MEAN_MOTION":13.14501022,"ECCENTRICITY":0.0001721,"INCLINATION":87.894,"RA_OF_ASC_NODE":296.6837,"ARG_OF_PERICENTER":102.4441,"MEAN_ANOMALY":257.6882,"EPHEMERIS_TYPE":0,"CLASSIFICATION_TYPE":"U","NORAD_CAT_ID":48232,"ELEMENT_SET_NO":999,"REV_AT_EPOCH":24380,"BSTAR":-0.00027067000000000004,"MEAN_MOTION_DOT":-8.8e-07,"MEAN_MOTION_DDOT":0.0},{"OBJECT_NAME":"ONEWEB-0165","OBJECT_ID":"2021-031Z","EPOCH":"2026-05-13T04:29:16.168416","MEAN_MOTION":13.14501721,"ECCENTRICITY":0.000144,"INCLINATION":87.8932,"RA_OF_ASC_NODE":296.6932,"ARG_OF_PERICENTER":93.278,"MEAN_ANOMALY":266.8514,"EPHEMERIS_TYPE":0,"CLASSIFICATION_TYPE":"U","NORAD_CAT_ID":48233,"ELEMENT_SET_NO":999,"REV_AT_EPOCH":24376,"BSTAR":-0.0011829000000000002,"MEAN_MOTION_DOT":-4.26e-06,"MEAN_MOTION_DDOT":0.0},{"OBJECT_NAME":"ONEWEB-0199","OBJECT_ID":"2021-031AA","EPOCH":"2026-05-13T04:06:26.181504","MEAN_MOTION":13.14500527,"ECCENTRICITY":0.0001984,"INCLINATION":87.894,"RA_OF_ASC_NODE":296.6799,"ARG_OF_PERICENTER":93.3411,"MEAN_ANOMALY":266.7946,"EPHEMERIS_TYPE":0,"CLASSIFICATION_TYPE":"U","NORAD_CAT_ID":48234,"ELEMENT_SET_NO":999,"REV_AT_EPOCH":24366,"BSTAR":-0.0007426199999999999,"MEAN_MOTION_DOT":-2.63e-06,"MEAN_MOTION_DDOT":0.0},{"OBJECT_NAME":"ONEWEB-0203","OBJECT_ID":"2021-031AB","EPOCH":"2026-05-13T03:52:44.260896","MEAN_MOTION":13.14503977,"ECCENTRICITY":0.0001761,"INCLINATION":87.8942,"RA_OF_ASC_NODE":296.6853,"ARG_OF_PERICENTER":89.8315,"MEAN_ANOMALY":270.3017,"EPHEMERIS_TYPE":0,"CLASSIFICATION_TYPE":"U","NORAD_CAT_ID":48235,"ELEMENT_SET_NO":999,"REV_AT_EPOCH":24367,"BSTAR":-0.0003494,"MEAN_MOTION_DOT":-1.17e-06,"MEAN_MOTION_DDOT":0.0},{"OBJECT_NAME":"ONEWEB-0197","OBJECT_ID":"2021-031AC","EPOCH":"2026-05-13T05:05:36.455136","MEAN_MOTION":13.14504473,"ECCENTRICITY":0.000205,"INCLINATION":87.8927,"RA_OF_ASC_NODE":296.6652,"ARG_OF_PERICENTER":102.4423,"MEAN_ANOMALY":257.6936,"EPHEMERIS_TYPE":0,"CLASSIFICATION_TYPE":"U","NORAD_CAT_ID":48236,"ELEMENT_SET_NO":999,"REV_AT_EPOCH":24359,"BSTAR":0.00044929999999999997,"MEAN_MOTION_DOT":1.79e-06,"MEAN_MOTION_DDOT":0.0},{"OBJECT_NAME":"ONEWEB-0194","OBJECT_ID":"2021-031AD","EPOCH":"2026-05-13T04:36:07.898976","MEAN_MOTION":13.14503897,"ECCENTRICITY":0.0001901,"INCLINATION":87.8931,"RA_OF_ASC_NODE":296.6894,"ARG_OF_PERICENTER":89.368,"MEAN_ANOMALY":270.7667,"EPHEMERIS_TYPE":0,"CLASSIFICATION_TYPE":"U","NORAD_CAT_ID":48237,"ELEMENT_SET_NO":999,"REV_AT_EPOCH":24376,"BSTAR":-3.4104000000000004e-05,"MEAN_MOTION_DOT":0.0,"MEAN_MOTION_DDOT":0.0},{"OBJECT_NAME":"ONEWEB-0193","OBJECT_ID":"2021-031AE","EPOCH":"2026-05-13T04:58:58.471680","MEAN_MOTION":13.14503581,"ECCENTRICITY":0.0002091,"INCLINATION":87.8931,"RA_OF_ASC_NODE":296.6774,"ARG_OF_PERICENTER":85.1288,"MEAN_ANOMALY":275.0081,"EPHEMERIS_TYPE":0,"CLASSIFICATION_TYPE":"U","NORAD_CAT_ID":48238,"ELEMENT_SET_NO":999,"REV_AT_EPOCH":24371,"BSTAR":0.0004662,"MEAN_MOTION_DOT":1.86e-06,"MEAN_MOTION_DDOT":0.0},{"OBJECT_NAME":"ONEWEB-0191","OBJECT_ID":"2021-031AF","EPOCH":"2026-05-13T05:14:57.084864","MEAN_MOTION":13.14504525,"ECCENTRICITY":0.0001952,"INCLINATION":87.8934,"RA_OF_ASC_NODE":296.6719,"ARG_OF_PERICENTER":99.9963,"MEAN_ANOMALY":260.1387,"EPHEMERIS_TYPE":0,"CLASSIFICATION_TYPE":"U","NORAD_CAT_ID":48239,"ELEMENT_SET_NO":999,"REV_AT_EPOCH":24357,"BSTAR":0.00045084000000000004,"MEAN_MOTION_DOT":1.8e-06,"MEAN_MOTION_DDOT":0.0},{"OBJECT_NAME":"ONEWEB-0195","OBJECT_ID":"2021-031AG","EPOCH":"2026-05-13T04:41:51.412416","MEAN_MOTION":13.14503995,"ECCENTRICITY":0.0001416,"INCLINATION":87.894,"RA_OF_ASC_NODE":296.6764,"ARG_OF_PERICENTER":96.3046,"MEAN_ANOMALY":263.8245,"EPHEMERIS_TYPE":0,"CLASSIFICATION_TYPE":"U","NORAD_CAT_ID":48240,"ELEMENT_SET_NO":999,"REV_AT_EPOCH":24355,"BSTAR":0.000127,"MEAN_MOTION_DOT":6e-07,"MEAN_MOTION_DDOT":0.0},{"OBJECT_NAME":"ONEWEB-0201","OBJECT_ID":"2021-031AH","EPOCH":"2026-05-13T04:24:54.042048","MEAN_MOTION":13.1450208,"ECCENTRICITY":0.0001823,"INCLINATION":87.8923,"RA_OF_ASC_NODE":296.6984,"ARG_OF_PERICENTER":108.6204,"MEAN_ANOMALY":251.5124,"EPHEMERIS_TYPE":0,"CLASSIFICATION_TYPE":"U","NORAD_CAT_ID":48241,"ELEMENT_SET_NO":999,"REV_AT_EPOCH":24378,"BSTAR":-0.00095112,"MEAN_MOTION_DOT":-3.4e-06,"MEAN_MOTION_DDOT":0.0}]