ONEWEB-0205             
1 48226U 21031S   26133.19968050  .00000131  00000+0  31796-3 0  9995
2 48226  87.8935 296.6745 0001709 101.4295 258.7027 13.14504471243675
ONEWEB-0206             
1 48227U 21031T   26133.02049510 -.00000149  00000+0 -43746-3 0  9998
2 48227  87.8933 296.7127 0001947  92.3749 267.7604 13.14501950243608
ONEWEB-0182             
1 48228U 21031U   26133.16796868 -.00000192  00000+0 -55261-3 0  9992
2 48228  87.8932 296.6922 0001965 100.3012 259.8340 13.14504080243834
ONEWEB-0186             
1 48229U 21031V   26133.17906773 -.00000213  00000+0 -61006-3 0  9990
2 48229  87.8937 296.6783 0001735  98.1742 261.9585 13.14504086243789
ONEWEB-0181             
1 48230U 21031W   26133.15688351 -.00000063  00000+0 -20435-3 0  9993
2 48230  87.8923 296.7176 0001566  96.8600 263.2708 13.14503585243632
ONEWEB-0188             
1 48231U 21031X   26133.19495190  .00000080  00000+0  18026-3 0  9995
2 48231  87.8921 296.7085 0001773  97.3811 262.7521 13.14503292243542
ONEWEB-0220             
1 48232U 21031Y   26133.15844773 -.00000088  00000+0 -27067-3 0  9992
2 48232  87.8940 296.6837 0001721 102.4441 257.6882 13.14501022243809
ONEWEB-0165             
1 48233U 21031Z   26133.18699269 -.00000426  00000+0 -11829-2 0  9998
2 48233  87.8932 296.6932 0001440  93.2780 266.8514 13.14501721243763
ONEWEB-0199             
1 48234U 21031AA  26133.17113636 -.00000263  00000+0 -74262-3 0  9997
2 48234  87.8940 296.6799 0001984  93.3411 266.7946 13.14500527243669
ONEWEB-0203             
1 48235U 21031AB  26133.16162339 -.00000117  00000+0 -34940-3 0  9998
2 48235  87.8942 296.6853 0001761  89.8315 270.3017 13.14503977243672
ONEWEB-0197             
1 48236U 21031AC  26133.21222749  .00000179  00000+0  44930-3 0  9993
2 48236  87.8927 296.6652 0002050 102.4423 257.6936 13.14504473243598
ONEWEB-0194             
1 48237U 21031AD  26133.19175809  .00000000  00000+0 -34104-4 0  9992
2 48237  87.8931 296.6894 0001901  89.3680 270.7667 13.14503897243769
ONEWEB-0193             
1 48238U 21031AE  26133.20762120  .00000186  00000+0  46620-3 0  9992
2 48238  87.8931 296.6774 0002091  85.1288 275.0081 13.14503581243719
ONEWEB-0191             
1 48239U 21031AF  26133.21871626  .00000180  00000+0  45084-3 0  9993
2 48239  87.8934 296.6719 0001952  99.9963 260.1387 13.14504525243577
ONEWEB-0195             
1 48240U 21031AG  26133.19573394  .00000060  00000+0  12700-3 0  9999
2 48240  87.8940 296.6764 0001416  96.3046 263.8245 13.14503995243555
ONEWEB-0201             
1 48241U 21031AH  26133.18395882 -.00000340  00000+0 -95112-3 0  9994
2 48241  87.8923 296.6984 0001823 108.6204 251.5124 13.14502080243785
